[{"OBJECT_NAME":"METEOSAT-12 (MTG-I1)","OBJECT_ID":"2022-170C","EPOCH":"2026-04-27T05:20:38.796864","MEAN_MOTION":1.00269708,"ECCENTRICITY":0.00011079,"INCLINATION":0.7245,"RA_OF_ASC_NODE":22.4777,"ARG_OF_PERICENTER":335.3296,"MEAN_ANOMALY":297.2322,"EPHEMERIS_TYPE":0,"CLASSIFICATION_TYPE":"U","NORAD_CAT_ID":54743,"ELEMENT_SET_NO":999,"REV_AT_EPOCH":1246,"BSTAR":0,"MEAN_MOTION_DOT":-1.8e-7,"MEAN_MOTION_DDOT":0},{"OBJECT_NAME":"SHIJIAN-23 (SJ-23)","OBJECT_ID":"2023-002A","EPOCH":"2026-04-26T18:49:56.968896","MEAN_MOTION":1.00460649,"ECCENTRICITY":0.0006662,"INCLINATION":3.5875,"RA_OF_ASC_NODE":78.9404,"ARG_OF_PERICENTER":269.6601,"MEAN_ANOMALY":317.9126,"EPHEMERIS_TYPE":0,"CLASSIFICATION_TYPE":"U","NORAD_CAT_ID":55131,"ELEMENT_SET_NO":999,"REV_AT_EPOCH":1199,"BSTAR":0,"MEAN_MOTION_DOT":-2.0e-8,"MEAN_MOTION_DDOT":0},{"OBJECT_NAME":"APSTAR-6E","OBJECT_ID":"2023-005A","EPOCH":"2026-04-26T21:53:57.743232","MEAN_MOTION":1.00272681,"ECCENTRICITY":3.53e-5,"INCLINATION":0.0185,"RA_OF_ASC_NODE":236.2827,"ARG_OF_PERICENTER":151.6335,"MEAN_ANOMALY":289.4756,"EPHEMERIS_TYPE":0,"CLASSIFICATION_TYPE":"U","NORAD_CAT_ID":55239,"ELEMENT_SET_NO":999,"REV_AT_EPOCH":1817,"BSTAR":0,"MEAN_MOTION_DOT":-3.29e-6,"MEAN_MOTION_DDOT":0},{"OBJECT_NAME":"USA 342","OBJECT_ID":"2023-008A","EPOCH":"2026-04-26T17:06:12.675744","MEAN_MOTION":1.00270547,"ECCENTRICITY":1.43e-5,"INCLINATION":0.0132,"RA_OF_ASC_NODE":265.7116,"ARG_OF_PERICENTER":194.9593,"MEAN_ANOMALY":34.4066,"EPHEMERIS_TYPE":0,"CLASSIFICATION_TYPE":"U","NORAD_CAT_ID":55263,"ELEMENT_SET_NO":999,"REV_AT_EPOCH":1200,"BSTAR":0,"MEAN_MOTION_DOT":1.26e-6,"MEAN_MOTION_DDOT":0},{"OBJECT_NAME":"LDPE-3A","OBJECT_ID":"2023-008B","EPOCH":"2026-04-27T00:18:02.988576","MEAN_MOTION":0.99145645,"ECCENTRICITY":3.458e-5,"INCLINATION":2.216,"RA_OF_ASC_NODE":82.2614,"ARG_OF_PERICENTER":6.3054,"MEAN_ANOMALY":229.0254,"EPHEMERIS_TYPE":0,"CLASSIFICATION_TYPE":"U","NORAD_CAT_ID":55264,"ELEMENT_SET_NO":999,"REV_AT_EPOCH":1130,"BSTAR":0,"MEAN_MOTION_DOT":-8.7e-7,"MEAN_MOTION_DDOT":0},{"OBJECT_NAME":"ELEKTRO-L 4","OBJECT_ID":"2023-016A","EPOCH":"2026-04-26T22:37:14.819232","MEAN_MOTION":1.00269402,"ECCENTRICITY":5.512e-5,"INCLINATION":0.0477,"RA_OF_ASC_NODE":37.0872,"ARG_OF_PERICENTER":222.1417,"MEAN_ANOMALY":100.7649,"EPHEMERIS_TYPE":0,"CLASSIFICATION_TYPE":"U","NORAD_CAT_ID":55506,"ELEMENT_SET_NO":999,"REV_AT_EPOCH":1182,"BSTAR":0,"MEAN_MOTION_DOT":0,"MEAN_MOTION_DDOT":0},{"OBJECT_NAME":"AMAZONAS NEXUS","OBJECT_ID":"2023-017A","EPOCH":"2026-04-27T04:00:19.811808","MEAN_MOTION":1.00268287,"ECCENTRICITY":0.00051847,"INCLINATION":0.0197,"RA_OF_ASC_NODE":20.2003,"ARG_OF_PERICENTER":21.8546,"MEAN_ANOMALY":172.1972,"EPHEMERIS_TYPE":0,"CLASSIFICATION_TYPE":"U","NORAD_CAT_ID":55508,"ELEMENT_SET_NO":999,"REV_AT_EPOCH":653,"BSTAR":0,"MEAN_MOTION_DOT":0,"MEAN_MOTION_DDOT":0},{"OBJECT_NAME":"ZHONGXING-26","OBJECT_ID":"2023-023A","EPOCH":"2026-04-25T21:02:58.504992","MEAN_MOTION":1.00269028,"ECCENTRICITY":0.00042717,"INCLINATION":0.0627,"RA_OF_ASC_NODE":67.4172,"ARG_OF_PERICENTER":355.3993,"MEAN_ANOMALY":231.9429,"EPHEMERIS_TYPE":0,"CLASSIFICATION_TYPE":"U","NORAD_CAT_ID":55686,"ELEMENT_SET_NO":999,"REV_AT_EPOCH":1170,"BSTAR":0,"MEAN_MOTION_DOT":-3.67e-6,"MEAN_MOTION_DDOT":0},{"OBJECT_NAME":"LUCH-5X (OLYMP-K 2)","OBJECT_ID":"2023-031A","EPOCH":"2026-04-26T18:14:38.619744","MEAN_MOTION":1.00269339,"ECCENTRICITY":0.0001471,"INCLINATION":0.0175,"RA_OF_ASC_NODE":89.3153,"ARG_OF_PERICENTER":91.5788,"MEAN_ANOMALY":9.5064,"EPHEMERIS_TYPE":0,"CLASSIFICATION_TYPE":"U","NORAD_CAT_ID":55841,"ELEMENT_SET_NO":999,"REV_AT_EPOCH":1142,"BSTAR":0,"MEAN_MOTION_DOT":2.2e-7,"MEAN_MOTION_DDOT":0},{"OBJECT_NAME":"GAOFEN-13 02","OBJECT_ID":"2023-036A","EPOCH":"2026-04-26T04:00:16.742880","MEAN_MOTION":1.00269343,"ECCENTRICITY":0.00047513,"INCLINATION":1.0201,"RA_OF_ASC_NODE":354.5774,"ARG_OF_PERICENTER":337.7039,"MEAN_ANOMALY":90.1726,"EPHEMERIS_TYPE":0,"CLASSIFICATION_TYPE":"U","NORAD_CAT_ID":55912,"ELEMENT_SET_NO":999,"REV_AT_EPOCH":1157,"BSTAR":0,"MEAN_MOTION_DOT":-2.34e-6,"MEAN_MOTION_DDOT":0},{"OBJECT_NAME":"SES-18","OBJECT_ID":"2023-038A","EPOCH":"2026-04-27T00:16:38.720928","MEAN_MOTION":1.0026941,"ECCENTRICITY":0.00013385,"INCLINATION":0.0198,"RA_OF_ASC_NODE":252.0815,"ARG_OF_PERICENTER":89.486,"MEAN_ANOMALY":134.4938,"EPHEMERIS_TYPE":0,"CLASSIFICATION_TYPE":"U","NORAD_CAT_ID":55970,"ELEMENT_SET_NO":999,"REV_AT_EPOCH":1159,"BSTAR":0,"MEAN_MOTION_DOT":0,"MEAN_MOTION_DDOT":0},{"OBJECT_NAME":"SES-19","OBJECT_ID":"2023-038B","EPOCH":"2026-04-27T04:47:31.142400","MEAN_MOTION":1.00271297,"ECCENTRICITY":0.00015693,"INCLINATION":0.0209,"RA_OF_ASC_NODE":285.7854,"ARG_OF_PERICENTER":103.1091,"MEAN_ANOMALY":123.2724,"EPHEMERIS_TYPE":0,"CLASSIFICATION_TYPE":"U","NORAD_CAT_ID":55971,"ELEMENT_SET_NO":999,"REV_AT_EPOCH":1158,"BSTAR":0,"MEAN_MOTION_DOT":7.8e-7,"MEAN_MOTION_DDOT":0},{"OBJECT_NAME":"INTELSAT 40E (IS-40E)","OBJECT_ID":"2023-052A","EPOCH":"2026-04-27T04:37:14.058048","MEAN_MOTION":1.00272133,"ECCENTRICITY":0.00010992,"INCLINATION":0.0139,"RA_OF_ASC_NODE":238.6065,"ARG_OF_PERICENTER":198.9307,"MEAN_ANOMALY":115.954,"EPHEMERIS_TYPE":0,"CLASSIFICATION_TYPE":"U","NORAD_CAT_ID":56174,"ELEMENT_SET_NO":999,"REV_AT_EPOCH":1131,"BSTAR":0,"MEAN_MOTION_DOT":-1.84e-6,"MEAN_MOTION_DDOT":0},{"OBJECT_NAME":"VIASAT-3 F1","OBJECT_ID":"2023-060A","EPOCH":"2026-04-27T01:07:28.248672","MEAN_MOTION":1.00271212,"ECCENTRICITY":0.0001104,"INCLINATION":0.0169,"RA_OF_ASC_NODE":278.7228,"ARG_OF_PERICENTER":166.2945,"MEAN_ANOMALY":57.9937,"EPHEMERIS_TYPE":0,"CLASSIFICATION_TYPE":"U","NORAD_CAT_ID":56370,"ELEMENT_SET_NO":999,"REV_AT_EPOCH":1092,"BSTAR":0,"MEAN_MOTION_DOT":-1.96e-6,"MEAN_MOTION_DDOT":0},{"OBJECT_NAME":"ARCTURUS","OBJECT_ID":"2023-060B","EPOCH":"2026-04-26T23:16:45.560064","MEAN_MOTION":1.00269907,"ECCENTRICITY":0.0001623,"INCLINATION":2.6442,"RA_OF_ASC_NODE":80.5687,"ARG_OF_PERICENTER":358.0152,"MEAN_ANOMALY":198.0876,"EPHEMERIS_TYPE":0,"CLASSIFICATION_TYPE":"U","NORAD_CAT_ID":56371,"ELEMENT_SET_NO":999,"REV_AT_EPOCH":1094,"BSTAR":0,"MEAN_MOTION_DOT":-7.1e-7,"MEAN_MOTION_DDOT":0},{"OBJECT_NAME":"GS-1","OBJECT_ID":"2023-060C","EPOCH":"2026-04-26T21:03:38.545344","MEAN_MOTION":1.00288335,"ECCENTRICITY":0.00044506,"INCLINATION":2.5944,"RA_OF_ASC_NODE":80.4043,"ARG_OF_PERICENTER":274.4448,"MEAN_ANOMALY":263.5069,"EPHEMERIS_TYPE":0,"CLASSIFICATION_TYPE":"U","NORAD_CAT_ID":56372,"ELEMENT_SET_NO":999,"REV_AT_EPOCH":702,"BSTAR":0,"MEAN_MOTION_DOT":-2.2e-6,"MEAN_MOTION_DDOT":0},{"OBJECT_NAME":"BEIDOU-3 G4","OBJECT_ID":"2023-066A","EPOCH":"2026-04-26T22:47:19.192416","MEAN_MOTION":1.00272365,"ECCENTRICITY":0.0002817,"INCLINATION":0.557,"RA_OF_ASC_NODE":320.0463,"ARG_OF_PERICENTER":160.5187,"MEAN_ANOMALY":216.2962,"EPHEMERIS_TYPE":0,"CLASSIFICATION_TYPE":"U","NORAD_CAT_ID":56564,"ELEMENT_SET_NO":999,"REV_AT_EPOCH":1088,"BSTAR":0,"MEAN_MOTION_DOT":-2.93e-6,"MEAN_MOTION_DDOT":0}]
