METEOSAT-12 (MTG-I1)    
1 54743U 22170C   26117.22267126 -.00000018  00000+0  00000+0 0  9998
2 54743   0.7245  22.4777 0001107 335.3296 297.2322  1.00269708 12465
SHIJIAN-23 (SJ-23)      
1 55131U 23002A   26116.78468714 -.00000002  00000+0  00000+0 0  9994
2 55131   3.5875  78.9404 0006662 269.6601 317.9126  1.00460649 11996
APSTAR-6E               
1 55239U 23005A   26116.91247388 -.00000329  00000+0  00000+0 0  9995
2 55239   0.0185 236.2827 0000353 151.6335 289.4756  1.00272681 18170
USA 342                 
1 55263U 23008A   26116.71264671  .00000126  00000+0  00000+0 0  9991
2 55263   0.0132 265.7116 0000143 194.9593  34.4066  1.00270547 12007
LDPE-3A                 
1 55264U 23008B   26117.01253459 -.00000087  00000+0  00000+0 0  9995
2 55264   2.2160  82.2614 0000345   6.3054 229.0254  0.99145645 11300
ELEKTRO-L 4             
1 55506U 23016A   26116.94253263  .00000000  00000+0  00000+0 0  9991
2 55506   0.0477  37.0872 0000551 222.1417 100.7649  1.00269402 11821
AMAZONAS NEXUS          
1 55508U 23017A   26117.16689597  .00000000  00000+0  00000+0 0  9992
2 55508   0.0197  20.2003 0005184  21.8546 172.1972  1.00268287  6530
ZHONGXING-26            
1 55686U 23023A   26115.87706603 -.00000367  00000+0  00000+0 0  9997
2 55686   0.0627  67.4172 0004271 355.3993 231.9429  1.00269028 11702
LUCH-5X (OLYMP-K 2)     
1 55841U 23031A   26116.76016921  .00000022  00000+0  00000+0 0  9992
2 55841   0.0175  89.3153 0001471  91.5788   9.5064  1.00269339 11423
GAOFEN-13 02            
1 55912U 23036A   26116.16686045 -.00000234  00000+0  00000+0 0  9996
2 55912   1.0201 354.5774 0004751 337.7039  90.1726  1.00269343 11579
SES-18                  
1 55970U 23038A   26117.01155927  .00000000  00000+0  00000+0 0  9997
2 55970   0.0198 252.0815 0001338  89.4860 134.4938  1.00269410 11590
SES-19                  
1 55971U 23038B   26117.19966600  .00000078  00000+0  00000+0 0  9990
2 55971   0.0209 285.7854 0001569 103.1091 123.2724  1.00271297 11580
INTELSAT 40E (IS-40E)   
1 56174U 23052A   26117.19252382 -.00000184  00000+0  00000+0 0  9996
2 56174   0.0139 238.6065 0001099 198.9307 115.9540  1.00272133 11314
VIASAT-3 F1             
1 56370U 23060A   26117.04685473 -.00000196  00000+0  00000+0 0  9991
2 56370   0.0169 278.7228 0001104 166.2945  57.9937  1.00271212 10922
ARCTURUS                
1 56371U 23060B   26116.96997176 -.00000071  00000+0  00000+0 0  9990
2 56371   2.6442  80.5687 0001623 358.0152 198.0876  1.00269907 10949
GS-1                    
1 56372U 23060C   26116.87752946 -.00000220  00000+0  00000+0 0  9991
2 56372   2.5944  80.4043 0004450 274.4448 263.5069  1.00288335  7024
BEIDOU-3 G4             
1 56564U 23066A   26116.94952769 -.00000293  00000+0  00000+0 0  9993
2 56564   0.5570 320.0463 0002817 160.5187 216.2962  1.00272365 10880
